start=new Date('2022-11-07T00:00:00.000Z').valueOf();
sats=[{"ECCENTRICITY":"0.00018900","ELEMENT_SET_NO":"999","NORAD_CAT_ID":"52622","OBJECT_TYPE":"PAYLOAD","PERIOD":"95.438","EPOCH":"2022-11-06T13:16:03.842400","RCS_SIZE":"LARGE","TIME_SYSTEM":"UTC","APOAPSIS":"541.074","TLE_LINE2":"2 52622  53.2204 357.0441 0001890  48.5720 311.5435 15.08833239 27118","RA_OF_ASC_NODE":"357.0441","LAUNCH_DATE":"2022-05-14","SITE":"AFETR","INCLINATION":"53.2204","EPHEMERIS_TYPE":"0","MEAN_MOTION_DOT":"-0.00001628","DECAY_DATE":null,"MEAN_ELEMENT_THEORY":"SGP4","CLASSIFICATION_TYPE":"U","ARG_OF_PERICENTER":"48.5720","PERIAPSIS":"538.459","MEAN_MOTION":"15.08833239","GP_ID":"217060557","SEMIMAJOR_AXIS":"6917.901","MEAN_MOTION_DDOT":"0.0000000000000","BSTAR":"-0.00008419000000","REV_AT_EPOCH":"2711","OBJECT_ID":"2022-052AA","CENTER_NAME":"EARTH","FILE":"3647092","TLE_LINE1":"1 52622U 22052AA  22310.55282225 -.00001628  00000-0 -84190-4 0  9992","REF_FRAME":"TEME","OBJECT_NAME":"STARLINK-4008","MEAN_ANOMALY":"311.5435","COUNTRY_CODE":"US"},{"ARG_OF_PERICENTER":"25.3672","CLASSIFICATION_TYPE":"U","PERIAPSIS":"537.880","MEAN_ELEMENT_THEORY":"SGP4","MEAN_MOTION_DOT":"0.00010760","DECAY_DATE":null,"SITE":"AFETR","EPHEMERIS_TYPE":"0","INCLINATION":"53.2166","RA_OF_ASC_NODE":"342.2173","TLE_LINE2":"2 52623  53.2166 342.2173 0002695  25.3672 334.7452 15.08840254 26937","LAUNCH_DATE":"2022-05-14","TIME_SYSTEM":"UTC","APOAPSIS":"541.609","EPOCH":"2022-11-06T12:22:25.862304","PERIOD":"95.438","RCS_SIZE":"LARGE","NORAD_CAT_ID":"52623","ECCENTRICITY":"0.00026950","ELEMENT_SET_NO":"999","OBJECT_TYPE":"PAYLOAD","COUNTRY_CODE":"US","MEAN_ANOMALY":"334.7452","OBJECT_NAME":"STARLINK-3986","TLE_LINE1":"1 52623U 22052AB  22310.51557711  .00010760  00000-0  69307-3 0  9991","FILE":"3647066","REF_FRAME":"TEME","OBJECT_ID":"2022-052AB","REV_AT_EPOCH":"2693","BSTAR":"0.00069307000000","CENTER_NAME":"EARTH","MEAN_MOTION_DDOT":"0.0000000000000","SEMIMAJOR_AXIS":"6917.880","GP_ID":"217057077","MEAN_MOTION":"15.08840254"},{"EPOCH":"2022-11-06T18:59:50.568000","PERIOD":"95.437","RCS_SIZE":"LARGE","ECCENTRICITY":"0.00026980","NORAD_CAT_ID":"52624","ELEMENT_SET_NO":"999","OBJECT_TYPE":"PAYLOAD","RA_OF_ASC_NODE":"340.9767","TLE_LINE2":"2 52624  53.2175 340.9767 0002698  26.2115 333.9014 15.08841535 27352","LAUNCH_DATE":"2022-05-14","TIME_SYSTEM":"UTC","APOAPSIS":"541.607","MEAN_MOTION_DOT":"0.00000712","DECAY_DATE":null,"SITE":"AFETR","EPHEMERIS_TYPE":"0","INCLINATION":"53.2175","ARG_OF_PERICENTER":"26.2115","CLASSIFICATION_TYPE":"U","PERIAPSIS":"537.874","MEAN_ELEMENT_THEORY":"SGP4","GP_ID":"217060094","MEAN_MOTION":"15.08841535","OBJECT_ID":"2022-052AC","BSTAR":"0.00006282700000","REV_AT_EPOCH":"2735","CENTER_NAME":"EARTH","SEMIMAJOR_AXIS":"6917.876","MEAN_MOTION_DDOT":"0.0000000000000","OBJECT_NAME":"STARLINK-4009","TLE_LINE1":"1 52624U 22052AC  22310.79155750  .00000712  00000-0  62827-4 0  9996","REF_FRAME":"TEME","FILE":"3647085","COUNTRY_CODE":"US","MEAN_ANOMALY":"333.9014"},{"OBJECT_NAME":"STARLINK-3988","FILE":"3647066","TLE_LINE1":"1 52625U 22052AD  22310.37939909  .00005732  00000-0  37802-3 0  9998","REF_FRAME":"TEME","COUNTRY_CODE":"US","MEAN_ANOMALY":"298.0092","MEAN_MOTION":"15.08833490","GP_ID":"217058579","CENTER_NAME":"EARTH","REV_AT_EPOCH":"2691","BSTAR":"0.00037802000000","OBJECT_ID":"2022-052AD","MEAN_MOTION_DDOT":"0.0000000000000","SEMIMAJOR_AXIS":"6917.900","DECAY_DATE":null,"MEAN_MOTION_DOT":"0.00005732","INCLINATION":"53.2192","EPHEMERIS_TYPE":"0","SITE":"AFETR","PERIAPSIS":"538.545","CLASSIFICATION_TYPE":"U","ARG_OF_PERICENTER":"62.1079","MEAN_ELEMENT_THEORY":"SGP4","RCS_SIZE":"LARGE","PERIOD":"95.438","EPOCH":"2022-11-06T09:06:20.081376","OBJECT_TYPE":"PAYLOAD","ECCENTRICITY":"0.00017640","ELEMENT_SET_NO":"999","NORAD_CAT_ID":"52625","LAUNCH_DATE":"2022-05-14","TLE_LINE2":"2 52625  53.2192 342.8144 0001764  62.1079 298.0092 15.08833490 26912","RA_OF_ASC_NODE":"342.8144","APOAPSIS":"540.986","TIME_SYSTEM":"UTC"},{"MEAN_ANOMALY":"320.2996","COUNTRY_CODE":"US","TLE_LINE1":"1 52626U 22052AE  22310.78786364  .00000465  00000-0  47302-4 0  9994","REF_FRAME":"TEME","FILE":"3647085","OBJECT_NAME":"STARLINK-3990","SEMIMAJOR_AXIS":"6917.849","MEAN_MOTION_DDOT":"0.0000000000000","OBJECT_ID":"2022-052AE","REV_AT_EPOCH":"2735","BSTAR":"0.00004730200000","CENTER_NAME":"EARTH","GP_ID":"217060090","MEAN_MOTION":"15.08850142","MEAN_ELEMENT_THEORY":"SGP4","ARG_OF_PERICENTER":"39.8136","CLASSIFICATION_TYPE":"U","PERIAPSIS":"538.394","SITE":"AFETR","EPHEMERIS_TYPE":"0","INCLINATION":"53.2190","MEAN_MOTION_DOT":"0.00000465","DECAY_DATE":null,"TIME_SYSTEM":"UTC","APOAPSIS":"541.034","RA_OF_ASC_NODE":"340.9932","TLE_LINE2":"2 52626  53.2190 340.9932 0001908  39.8136 320.2996 15.08850142 27353","LAUNCH_DATE":"2022-05-14","ELEMENT_SET_NO":"999","NORAD_CAT_ID":"52626","ECCENTRICITY":"0.00019080","OBJECT_TYPE":"PAYLOAD","EPOCH":"2022-11-06T18:54:31.418496","PERIOD":"95.437","RCS_SIZE":"LARGE"},{"MEAN_MOTION":"15.08822422","GP_ID":"217057577","REV_AT_EPOCH":"2692","BSTAR":"-0.00010611000000","OBJECT_ID":"2022-052AF","CENTER_NAME":"EARTH","SEMIMAJOR_AXIS":"6917.934","MEAN_MOTION_DDOT":"0.0000000000000","OBJECT_NAME":"STARLINK-3992","FILE":"3647066","TLE_LINE1":"1 52627U 22052AF  22310.36837111 -.00001976  00000-0 -10611-3 0  9998","REF_FRAME":"TEME","COUNTRY_CODE":"US","MEAN_ANOMALY":"327.2502","PERIOD":"95.439","EPOCH":"2022-11-06T08:50:27.263904","RCS_SIZE":"LARGE","ECCENTRICITY":"0.00025570","ELEMENT_SET_NO":"999","NORAD_CAT_ID":"52627","OBJECT_TYPE":"PAYLOAD","TLE_LINE2":"2 52627  53.2166 342.8764 0002557  32.8649 327.2502 15.08822422 26926","RA_OF_ASC_NODE":"342.8764","LAUNCH_DATE":"2022-05-14","TIME_SYSTEM":"UTC","APOAPSIS":"541.568","MEAN_MOTION_DOT":"-0.00001976","DECAY_DATE":null,"SITE":"AFETR","INCLINATION":"53.2166","EPHEMERIS_TYPE":"0","CLASSIFICATION_TYPE":"U","ARG_OF_PERICENTER":"32.8649","PERIAPSIS":"538.030","MEAN_ELEMENT_THEORY":"SGP4"},{"OBJECT_NAME":"STARLINK-4001","TLE_LINE1":"1 52628U 22052AG  22310.41666045 -.00000674  00000-0 -24220-4 0  9997","REF_FRAME":"TEME","FILE":"3647066","COUNTRY_CODE":"US","MEAN_ANOMALY":"323.6764","MEAN_MOTION":"15.08828999","GP_ID":"217057829","BSTAR":"-0.00002422000000","REV_AT_EPOCH":"2671","OBJECT_ID":"2022-052AG","CENTER_NAME":"EARTH","MEAN_MOTION_DDOT":"0.0000000000000","SEMIMAJOR_AXIS":"6917.914","MEAN_MOTION_DOT":"-0.00000674","DECAY_DATE":null,"SITE":"AFETR","INCLINATION":"53.2187","EPHEMERIS_TYPE":"0","CLASSIFICATION_TYPE":"U","ARG_OF_PERICENTER":"36.4374","PERIAPSIS":"538.293","MEAN_ELEMENT_THEORY":"SGP4","PERIOD":"95.438","EPOCH":"2022-11-06T09:59:59.462880","RCS_SIZE":"LARGE","ELEMENT_SET_NO":"999","NORAD_CAT_ID":"52628","ECCENTRICITY":"0.00021480","OBJECT_TYPE":"PAYLOAD","TLE_LINE2":"2 52628  53.2187 357.6605 0002148  36.4374 323.6764 15.08828999 26711","RA_OF_ASC_NODE":"357.6605","LAUNCH_DATE":"2022-05-14","TIME_SYSTEM":"UTC","APOAPSIS":"541.265"},{"APOAPSIS":"541.351","TIME_SYSTEM":"UTC","LAUNCH_DATE":"2022-05-14","RA_OF_ASC_NODE":"342.8877","TLE_LINE2":"2 52629  53.2193 342.8877 0002284  38.6246 321.4909 15.08831545 27291","OBJECT_TYPE":"PAYLOAD","ELEMENT_SET_NO":"999","NORAD_CAT_ID":"52629","ECCENTRICITY":"0.00022840","RCS_SIZE":"LARGE","PERIOD":"95.438","EPOCH":"2022-11-06T08:45:09.191808","MEAN_ELEMENT_THEORY":"SGP4","PERIAPSIS":"538.191","ARG_OF_PERICENTER":"38.6246","CLASSIFICATION_TYPE":"U","EPHEMERIS_TYPE":"0","INCLINATION":"53.2193","SITE":"AFETR","DECAY_DATE":null,"MEAN_MOTION_DOT":"0.00001522","MEAN_MOTION_DDOT":"0.0000000000000","SEMIMAJOR_AXIS":"6917.906","CENTER_NAME":"EARTH","OBJECT_ID":"2022-052AH","BSTAR":"0.00011372000000","REV_AT_EPOCH":"2729","GP_ID":"217060205","MEAN_MOTION":"15.08831545","MEAN_ANOMALY":"321.4909","COUNTRY_CODE":"US","TLE_LINE1":"1 52629U 22052AH  22310.36468972  .00001522  00000-0  11372-3 0  9995","FILE":"3647086","REF_FRAME":"TEME","OBJECT_NAME":"STARLINK-4022"},{"EPHEMERIS_TYPE":"0","INCLINATION":"53.2176","SITE":"AFETR","DECAY_DATE":null,"MEAN_MOTION_DOT":"0.00000274","MEAN_ELEMENT_THEORY":"SGP4","PERIAPSIS":"537.763","ARG_OF_PERICENTER":"33.1585","CLASSIFICATION_TYPE":"U","OBJECT_TYPE":"PAYLOAD","NORAD_CAT_ID":"52630","ELEMENT_SET_NO":"999","ECCENTRICITY":"0.00028260","RCS_SIZE":"LARGE","PERIOD":"95.437","EPOCH":"2022-11-06T12:11:47.184000","APOAPSIS":"541.673","TIME_SYSTEM":"UTC","LAUNCH_DATE":"2022-05-14","RA_OF_ASC_NODE":"342.2446","TLE_LINE2":"2 52630  53.2176 342.2446 0002826  33.1585 326.9584 15.08848909 26939","REF_FRAME":"TEME","TLE_LINE1":"1 52630U 22052AJ  22310.50818500  .00000274  00000-0  35308-4 0  9998","FILE":"3647066","OBJECT_NAME":"STARLINK-3989","MEAN_ANOMALY":"326.9584","COUNTRY_CODE":"US","GP_ID":"217056828","MEAN_MOTION":"15.08848909","MEAN_MOTION_DDOT":"0.0000000000000","SEMIMAJOR_AXIS":"6917.853","CENTER_NAME":"EARTH","OBJECT_ID":"2022-052AJ","BSTAR":"0.00003530800000","REV_AT_EPOCH":"2693"},{"GP_ID":"217057078","MEAN_MOTION":"15.08832332","MEAN_MOTION_DDOT":"0.0000000000000","SEMIMAJOR_AXIS":"6917.904","CENTER_NAME":"EARTH","OBJECT_ID":"2022-052AK","BSTAR":"0.00001014200000","REV_AT_EPOCH":"2694","FILE":"3647066","TLE_LINE1":"1 52631U 22052AK  22310.49348364 -.00000127  00000-0  10142-4 0  9990","REF_FRAME":"TEME","OBJECT_NAME":"STARLINK-3794","MEAN_ANOMALY":"327.6312","COUNTRY_CODE":"US","OBJECT_TYPE":"PAYLOAD","ELEMENT_SET_NO":"999","ECCENTRICITY":"0.00026510","NORAD_CAT_ID":"52631","RCS_SIZE":"LARGE","EPOCH":"2022-11-06T11:50:36.986496","PERIOD":"95.438","APOAPSIS":"541.603","TIME_SYSTEM":"UTC","LAUNCH_DATE":"2022-05-14","RA_OF_ASC_NODE":"342.3093","TLE_LINE2":"2 52631  53.2194 342.3093 0002651  32.4843 327.6312 15.08832332 26945","EPHEMERIS_TYPE":"0","INCLINATION":"53.2194","SITE":"AFETR","DECAY_DATE":null,"MEAN_MOTION_DOT":"-0.00000127","MEAN_ELEMENT_THEORY":"SGP4","PERIAPSIS":"537.935","ARG_OF_PERICENTER":"32.4843","CLASSIFICATION_TYPE":"U"}];
